GPS BIIA-23 (PRN 18)    
1 22877U 93068A   19242.36954174 -.00000020  00000-0  00000+0 0  9991
2 22877  54.7400  65.5270 0154500  81.5509 271.5022  2.00563005189352
GPS BIIR-2  (PRN 13)    
1 24876U 97035A   19241.77472300  .00000011  00000-0  00000+0 0  9999
2 24876  55.4599 195.5895 0034795  68.3343 292.0006  2.00564008161948
GPS BIIR-3  (PRN 11)    
1 25933U 99055A   19242.37737362 -.00000055  00000-0  00000+0 0  9996
2 25933  52.1688  42.6206 0165017 111.0856 249.2677  2.00557039145778
GPS BIIR-4  (PRN 20)    
1 26360U 00025A   19241.06157142  .00000002  00000-0  00000+0 0  9998
2 26360  53.3687 121.3993 0046145 140.5966  38.2736  2.00569011141447
GPS BIIR-5  (PRN 28)    
1 26407U 00040A   19241.35188344 -.00000023  00000-0  00000+0 0  9991
2 26407  56.2074 313.7179 0193061 276.2702  83.5218  2.00560152140128
GPS BIIR-6  (PRN 14)    
1 26605U 00071A   19242.47272245  .00000009  00000-0  00000+0 0  9996
2 26605  55.0343 192.9802 0110088 249.8089 110.8418  2.00555615137744
GPS BIIR-8  (PRN 16)    
1 27663U 03005A   19242.18330538 -.00000026  00000-0  00000+0 0  9999
2 27663  56.2657 313.4612 0106178  32.3012 332.6489  2.00569172121507
GPS BIIR-9  (PRN 21)    
1 27704U 03010A   19242.48196946 -.00000022  00000-0  00000+0 0  9993
2 27704  54.4159  64.9689 0246790 278.7083 262.1905  2.00563801120301
GPS BIIR-10 (PRN 22)    
1 28129U 03058A   19241.97211099  .00000004  00000-0  00000+0 0  9996
2 28129  53.1806 124.1325 0071919 285.4791  73.8088  2.00557505114995
GPS BIIR-11 (PRN 19)    
1 28190U 04009A   19241.97076715 -.00000074  00000-0  00000+0 0  9993
2 28190  56.2778  14.2434 0092576  85.1599 278.2660  2.00567162113174
GPS BIIR-12 (PRN 23)    
1 28361U 04023A   19242.32762498  .00000004  00000-0  00000+0 0  9991
2 28361  54.0520 187.2776 0134377 232.7620 302.0454  2.00551962111262
GPS BIIR-13 (PRN 02)    
1 28474U 04045A   19241.60945167 -.00000015  00000-0  00000+0 0  9999
2 28474  54.7706  64.7833 0192027 261.4855 111.9712  2.00551764108617
GPS BIIRM-1 (PRN 17)    
1 28874U 05038A   19242.44907831 -.00000076  00000-0  00000+0 0  9992
2 28874  56.3964  11.5852 0132884 262.3558 103.3455  2.00576932102034
GPS BIIRM-2 (PRN 31)    
1 29486U 06042A   19240.04424271  .00000069  00000-0  00000+0 0  9995
2 29486  54.9704 250.1614 0093033 359.6972 355.8065  2.00562763 94699
GPS BIIRM-3 (PRN 12)    
1 29601U 06052A   19240.99359905 -.00000019  00000-0  00000+0 0  9996
2 29601  56.2486 312.4249 0072822  62.6072 298.2025  2.00573693 93634
GPS BIIRM-4 (PRN 15)    
1 32260U 07047A   19241.30962935 -.00000001  00000-0  00000+0 0  9996
2 32260  53.1750 182.9412 0115125  45.2714 315.6306  2.00554207 87016
GPS BIIRM-5 (PRN 29)    
1 32384U 07062A   19242.12774100 -.00000075  00000-0  00000+0 0  9997
2 32384  56.4831  12.2446 0009969 117.5118 247.9008  2.00560570 85777
GPS BIIRM-6 (PRN 07)    
1 32711U 08012A   19239.72169672  .00000072  00000-0  00000+0 0  9997
2 32711  54.7123 249.3475 0132891 221.2094 137.8206  2.00556179 83908
GPS BIIRM-8 (PRN 05)    
1 35752U 09043A   19242.42657466  .00000007  00000-0  00000+0 0  9992
2 35752  54.4562 126.8861 0057084  42.4427 136.1417  2.00553765 73544
GPS BIIF-1  (PRN 25)    
1 36585U 10022A   19239.65039306 -.00000013  00000-0  00000+0 0  9992
2 36585  55.5270 308.7263 0082032  50.6541  27.0118  2.00564221 67732
GPS BIIF-2  (PRN 01)    
1 37753U 11036A   19241.91371488 -.00000009  00000-0  00000+0 0  9993
2 37753  55.9686  68.8205 0089501  42.2531 318.4934  2.00566822 59462
GPS BIIF-3  (PRN 24)    
1 38833U 12053A   19239.90830988  .00000067  00000-0  00000+0 0  9997
2 38833  53.7493 245.4715 0084371  33.2233 327.3376  2.00559553 50487
GPS BIIF-4  (PRN 27)    
1 39166U 13023A   19241.75939212 -.00000076  00000-0  00000+0 0  9992
2 39166  56.0741   8.3614 0070635  28.0339 332.3470  2.00566554 46069
GPS BIIF-5  (PRN 30)    
1 39533U 14008A   19242.25675428  .00000039  00000-0  00000+0 0  9994
2 39533  53.8758 250.7785 0042633 196.5660 163.3219  2.00552716 40430
GPS BIIF-6  (PRN 06)    
1 39741U 14026A   19242.53584521 -.00000014  00000-0  00000+0 0  9993
2 39741  55.9477  68.3216 0015796 292.0066  67.8847  2.00566914 38725
GPS BIIF-7  (PRN 09)    
1 40105U 14045A   19241.13246594  .00000004  00000-0  00000+0 0  9998
2 40105  54.5787 187.6705 0011021  97.9875 262.1068  2.00570673 37142
GPS BIIF-8  (PRN 03)    
1 40294U 14068A   19241.50349597  .00000005  00000-0  00000+0 0  9991
2 40294  55.2077 128.5361 0023345  36.5188 323.7143  2.00557775 35370
GPS BIIF-9  (PRN 26)    
1 40534U 15013A   19242.13777579 -.00000018  00000-0  00000+0 0  9999
2 40534  54.4501 306.8903 0038031   4.2169 355.8927  2.00565027 32453
GPS BIIF-10  (PRN 08)   
1 40730U 15033A   19239.31193557 -.00000071  00000-0  00000+0 0  9992
2 40730  55.5973   7.7661 0044418 344.1548  15.7137  2.00578948 30153
GPS BIIF-11  (PRN 10)   
1 41019U 15062A   19240.85154549  .00000002  00000-0  00000+0 0  9997
2 41019  55.2075 128.3793 0048641 206.2223 153.6009  2.00564572 28009
GPS BIIF-12  (PRN 32)   
1 41328U 16007A   19241.44188311  .00000004  00000-0  00000+0 0  9992
2 41328  54.8205 188.0669 0033679 220.3280 139.3914  2.00569337 26077
